ONEWEB-0134             
1 47280U 20100Y   21134.09129950 -.00001159  00000-0 -32578-2 0  9995
2 47280  87.8930   0.4916 0001345  74.5145 285.6131 13.12441351 20729
ONEWEB-0135             
1 47281U 20100Z   21133.67837700 -.00000431  00000-0 -12344-2 0  9999
2 47281  87.8935   0.5534 0001907  97.1297 263.0048 13.12443057 20693
ONEWEB-0136             
1 47282U 20100AA  21134.08075819  .00000461  00000-0  12468-2 0  9999
2 47282  87.8959   0.3991 0001597 101.3928 258.7380 13.12444280 20676
ONEWEB-0137             
1 47283U 20100AB  21133.66122875 -.00004567  00000-0 -12738-1 0  9990
2 47283  87.8963   0.6472 0002170  88.5611 271.5766 13.12431028 20523
ONEWEB-0138             
1 47284U 20100AC  21134.09351706  .00000367  00000-0  98421-3 0  9993
2 47284  87.8981   0.5408 0001804  92.4123 267.7212 13.12449410 20669
ONEWEB-0139             
1 47285U 20100AD  21133.68261389  .00000187  00000-0  48513-3 0  9992
2 47285  87.8977   0.5797 0001541  92.9657 267.1648 13.12450731 20688
ONEWEB-0140             
1 47286U 20100AE  21133.70382748  .00000251  00000-0  66228-3 0  9994
2 47286  87.8953   0.5753 0001703 102.0105 258.1214 13.12449238 20641
ONEWEB-0141             
1 47287U 20100AF  21134.07653124  .00002121  00000-0  58590-2 0  9995
2 47287  87.8926   0.5376 0002160  95.5023 264.6352 13.12429254 20681
ONEWEB-0142             
1 47288U 20100AG  21134.09972588 -.00002382  00000-0 -66590-2 0  9996
2 47288  87.8953   0.5710 0001929  90.2362 269.8988 13.12439483 20681
ONEWEB-0143             
1 47289U 20100AH  21133.67404932 -.00000069  00000-0 -22659-3 0  9992
2 47289  87.8975   0.4962 0001552  79.7720 280.3584 13.12463778 20602
ONEWEB-0144             
1 47290U 20100AJ  21133.64874305 -.00000394  00000-0 -11296-2 0  9991
2 47290  87.8901   0.4961 0001467  88.2226 271.9071 13.12444085 20521
ONEWEB-0145             
1 47291U 20100AK  21134.07228629  .00000457  00000-0  12343-2 0  9994
2 47291  87.8950   0.4831 0001825  95.0819 265.0518 13.12443889 20772
ONEWEB-0146             
1 47292U 20100AL  21134.06821066  .00000131  00000-0  32923-3 0  9994
2 47292  87.8937   0.5351 0002501  81.1491 278.9920 13.12383448 20684
ONEWEB-0147             
1 47293U 20100AM  21133.65919903 -.00000360  00000-0 -10365-2 0  9998
2 47293  87.8955   0.5819 0001670  91.3704 268.7616 13.12459157 20523
ONEWEB-0115             
1 48042U 21025A   21134.16667824 -.01479271  00000-0 -24059+0 0  9991
2 48042  87.5329 332.9236 0008924  91.5763 293.5173 14.74694171  8907
ONEWEB-0152             
1 48043U 21025B   21134.25001157 -.01413806  00000-0 -23550+0 0  9990
2 48043  87.5290 332.9250 0012085  81.5972 280.5617 14.73475769  8891
