[
{
"OBJECT_NAME": "ONEWEB-0134",
"OBJECT_ID": "2020-100Y",
"EPOCH": "2021-05-14T02:11:28.276800",
"MEAN_MOTION": 13.12441351,
"ECCENTRICITY": 0.0001345,
"INCLINATION": 87.893,
"RA_OF_ASC_NODE": 0.4916,
"ARG_OF_PERICENTER": 74.5145,
"MEAN_ANOMALY": 285.6131,
"EPHEMERIS_TYPE": 0,
"CLASSIFICATION_TYPE": "U",
"NORAD_CAT_ID": 47280,
"ELEMENT_SET_NO": 999,
"REV_AT_EPOCH": 2072,
"BSTAR": -0.0032578,
"MEAN_MOTION_DOT": -0.00001159,
"MEAN_MOTION_DDOT": 0
},
{
"OBJECT_NAME": "ONEWEB-0135",
"OBJECT_ID": "2020-100Z",
"EPOCH": "2021-05-13T16:16:51.772800",
"MEAN_MOTION": 13.12443057,
"ECCENTRICITY": 0.0001907,
"INCLINATION": 87.8935,
"RA_OF_ASC_NODE": 0.5534,
"ARG_OF_PERICENTER": 97.1297,
"MEAN_ANOMALY": 263.0048,
"EPHEMERIS_TYPE": 0,
"CLASSIFICATION_TYPE": "U",
"NORAD_CAT_ID": 47281,
"ELEMENT_SET_NO": 999,
"REV_AT_EPOCH": 2069,
"BSTAR": -0.0012344,
"MEAN_MOTION_DOT": -0.00000431,
"MEAN_MOTION_DDOT": 0
},
{
"OBJECT_NAME": "ONEWEB-0136",
"OBJECT_ID": "2020-100AA",
"EPOCH": "2021-05-14T01:56:17.507616",
"MEAN_MOTION": 13.1244428,
"ECCENTRICITY": 0.0001597,
"INCLINATION": 87.8959,
"RA_OF_ASC_NODE": 0.3991,
"ARG_OF_PERICENTER": 101.3928,
"MEAN_ANOMALY": 258.738,
"EPHEMERIS_TYPE": 0,
"CLASSIFICATION_TYPE": "U",
"NORAD_CAT_ID": 47282,
"ELEMENT_SET_NO": 999,
"REV_AT_EPOCH": 2067,
"BSTAR": 0.0012468,
"MEAN_MOTION_DOT": 0.00000461,
"MEAN_MOTION_DDOT": 0
},
{
"OBJECT_NAME": "ONEWEB-0137",
"OBJECT_ID": "2020-100AB",
"EPOCH": "2021-05-13T15:52:10.164000",
"MEAN_MOTION": 13.12431028,
"ECCENTRICITY": 0.000217,
"INCLINATION": 87.8963,
"RA_OF_ASC_NODE": 0.6472,
"ARG_OF_PERICENTER": 88.5611,
"MEAN_ANOMALY": 271.5766,
"EPHEMERIS_TYPE": 0,
"CLASSIFICATION_TYPE": "U",
"NORAD_CAT_ID": 47283,
"ELEMENT_SET_NO": 999,
"REV_AT_EPOCH": 2052,
"BSTAR": -0.012738,
"MEAN_MOTION_DOT": -0.00004567,
"MEAN_MOTION_DDOT": 0
},
{
"OBJECT_NAME": "ONEWEB-0138",
"OBJECT_ID": "2020-100AC",
"EPOCH": "2021-05-14T02:14:39.873984",
"MEAN_MOTION": 13.1244941,
"ECCENTRICITY": 0.0001804,
"INCLINATION": 87.8981,
"RA_OF_ASC_NODE": 0.5408,
"ARG_OF_PERICENTER": 92.4123,
"MEAN_ANOMALY": 267.7212,
"EPHEMERIS_TYPE": 0,
"CLASSIFICATION_TYPE": "U",
"NORAD_CAT_ID": 47284,
"ELEMENT_SET_NO": 999,
"REV_AT_EPOCH": 2066,
"BSTAR": 0.00098421,
"MEAN_MOTION_DOT": 0.00000367,
"MEAN_MOTION_DDOT": 0
},
{
"OBJECT_NAME": "ONEWEB-0139",
"OBJECT_ID": "2020-100AD",
"EPOCH": "2021-05-13T16:22:57.840096",
"MEAN_MOTION": 13.12450731,
"ECCENTRICITY": 0.0001541,
"INCLINATION": 87.8977,
"RA_OF_ASC_NODE": 0.5797,
"ARG_OF_PERICENTER": 92.9657,
"MEAN_ANOMALY": 267.1648,
"EPHEMERIS_TYPE": 0,
"CLASSIFICATION_TYPE": "U",
"NORAD_CAT_ID": 47285,
"ELEMENT_SET_NO": 999,
"REV_AT_EPOCH": 2068,
"BSTAR": 0.00048513,
"MEAN_MOTION_DOT": 0.00000187,
"MEAN_MOTION_DDOT": 0
},
{
"OBJECT_NAME": "ONEWEB-0140",
"OBJECT_ID": "2020-100AE",
"EPOCH": "2021-05-13T16:53:30.694272",
"MEAN_MOTION": 13.12449238,
"ECCENTRICITY": 0.0001703,
"INCLINATION": 87.8953,
"RA_OF_ASC_NODE": 0.5753,
"ARG_OF_PERICENTER": 102.0105,
"MEAN_ANOMALY": 258.1214,
"EPHEMERIS_TYPE": 0,
"CLASSIFICATION_TYPE": "U",
"NORAD_CAT_ID": 47286,
"ELEMENT_SET_NO": 999,
"REV_AT_EPOCH": 2064,
"BSTAR": 0.00066228,
"MEAN_MOTION_DOT": 0.00000251,
"MEAN_MOTION_DDOT": 0
},
{
"OBJECT_NAME": "ONEWEB-0141",
"OBJECT_ID": "2020-100AF",
"EPOCH": "2021-05-14T01:50:12.299136",
"MEAN_MOTION": 13.12429254,
"ECCENTRICITY": 0.000216,
"INCLINATION": 87.8926,
"RA_OF_ASC_NODE": 0.5376,
"ARG_OF_PERICENTER": 95.5023,
"MEAN_ANOMALY": 264.6352,
"EPHEMERIS_TYPE": 0,
"CLASSIFICATION_TYPE": "U",
"NORAD_CAT_ID": 47287,
"ELEMENT_SET_NO": 999,
"REV_AT_EPOCH": 2068,
"BSTAR": 0.005859,
"MEAN_MOTION_DOT": 0.00002121,
"MEAN_MOTION_DDOT": 0
},
{
"OBJECT_NAME": "ONEWEB-0142",
"OBJECT_ID": "2020-100AG",
"EPOCH": "2021-05-14T02:23:36.316032",
"MEAN_MOTION": 13.12439483,
"ECCENTRICITY": 0.0001929,
"INCLINATION": 87.8953,
"RA_OF_ASC_NODE": 0.571,
"ARG_OF_PERICENTER": 90.2362,
"MEAN_ANOMALY": 269.8988,
"EPHEMERIS_TYPE": 0,
"CLASSIFICATION_TYPE": "U",
"NORAD_CAT_ID": 47288,
"ELEMENT_SET_NO": 999,
"REV_AT_EPOCH": 2068,
"BSTAR": -0.006659,
"MEAN_MOTION_DOT": -0.00002382,
"MEAN_MOTION_DDOT": 0
},
{
"OBJECT_NAME": "ONEWEB-0143",
"OBJECT_ID": "2020-100AH",
"EPOCH": "2021-05-13T16:10:37.861248",
"MEAN_MOTION": 13.12463778,
"ECCENTRICITY": 0.0001552,
"INCLINATION": 87.8975,
"RA_OF_ASC_NODE": 0.4962,
"ARG_OF_PERICENTER": 79.772,
"MEAN_ANOMALY": 280.3584,
"EPHEMERIS_TYPE": 0,
"CLASSIFICATION_TYPE": "U",
"NORAD_CAT_ID": 47289,
"ELEMENT_SET_NO": 999,
"REV_AT_EPOCH": 2060,
"BSTAR": -0.00022659,
"MEAN_MOTION_DOT": -6.9e-7,
"MEAN_MOTION_DDOT": 0
},
{
"OBJECT_NAME": "ONEWEB-0144",
"OBJECT_ID": "2020-100AJ",
"EPOCH": "2021-05-13T15:34:11.399520",
"MEAN_MOTION": 13.12444085,
"ECCENTRICITY": 0.0001467,
"INCLINATION": 87.8901,
"RA_OF_ASC_NODE": 0.4961,
"ARG_OF_PERICENTER": 88.2226,
"MEAN_ANOMALY": 271.9071,
"EPHEMERIS_TYPE": 0,
"CLASSIFICATION_TYPE": "U",
"NORAD_CAT_ID": 47290,
"ELEMENT_SET_NO": 999,
"REV_AT_EPOCH": 2052,
"BSTAR": -0.0011296,
"MEAN_MOTION_DOT": -0.00000394,
"MEAN_MOTION_DDOT": 0
},
{
"OBJECT_NAME": "ONEWEB-0145",
"OBJECT_ID": "2020-100AK",
"EPOCH": "2021-05-14T01:44:05.535456",
"MEAN_MOTION": 13.12443889,
"ECCENTRICITY": 0.0001825,
"INCLINATION": 87.895,
"RA_OF_ASC_NODE": 0.4831,
"ARG_OF_PERICENTER": 95.0819,
"MEAN_ANOMALY": 265.0518,
"EPHEMERIS_TYPE": 0,
"CLASSIFICATION_TYPE": "U",
"NORAD_CAT_ID": 47291,
"ELEMENT_SET_NO": 999,
"REV_AT_EPOCH": 2077,
"BSTAR": 0.0012343,
"MEAN_MOTION_DOT": 0.00000457,
"MEAN_MOTION_DDOT": 0
},
{
"OBJECT_NAME": "ONEWEB-0146",
"OBJECT_ID": "2020-100AL",
"EPOCH": "2021-05-14T01:38:13.401024",
"MEAN_MOTION": 13.12383448,
"ECCENTRICITY": 0.0002501,
"INCLINATION": 87.8937,
"RA_OF_ASC_NODE": 0.5351,
"ARG_OF_PERICENTER": 81.1491,
"MEAN_ANOMALY": 278.992,
"EPHEMERIS_TYPE": 0,
"CLASSIFICATION_TYPE": "U",
"NORAD_CAT_ID": 47292,
"ELEMENT_SET_NO": 999,
"REV_AT_EPOCH": 2068,
"BSTAR": 0.00032923,
"MEAN_MOTION_DOT": 0.00000131,
"MEAN_MOTION_DDOT": 0
},
{
"OBJECT_NAME": "ONEWEB-0147",
"OBJECT_ID": "2020-100AM",
"EPOCH": "2021-05-13T15:49:14.796192",
"MEAN_MOTION": 13.12459157,
"ECCENTRICITY": 0.000167,
"INCLINATION": 87.8955,
"RA_OF_ASC_NODE": 0.5819,
"ARG_OF_PERICENTER": 91.3704,
"MEAN_ANOMALY": 268.7616,
"EPHEMERIS_TYPE": 0,
"CLASSIFICATION_TYPE": "U",
"NORAD_CAT_ID": 47293,
"ELEMENT_SET_NO": 999,
"REV_AT_EPOCH": 2052,
"BSTAR": -0.0010365,
"MEAN_MOTION_DOT": -0.0000036,
"MEAN_MOTION_DDOT": 0
},
{
"OBJECT_NAME": "ONEWEB-0115",
"OBJECT_ID": "2021-025A",
"EPOCH": "2021-05-14T04:00:00.999936",
"MEAN_MOTION": 14.74694171,
"ECCENTRICITY": 0.0008924,
"INCLINATION": 87.5329,
"RA_OF_ASC_NODE": 332.9236,
"ARG_OF_PERICENTER": 91.5763,
"MEAN_ANOMALY": 293.5173,
"EPHEMERIS_TYPE": 0,
"CLASSIFICATION_TYPE": "U",
"NORAD_CAT_ID": 48042,
"ELEMENT_SET_NO": 999,
"REV_AT_EPOCH": 890,
"BSTAR": -0.24059,
"MEAN_MOTION_DOT": -0.01479271,
"MEAN_MOTION_DDOT": 0
},
{
"OBJECT_NAME": "ONEWEB-0152",
"OBJECT_ID": "2021-025B",
"EPOCH": "2021-05-14T06:00:00.999648",
"MEAN_MOTION": 14.73475769,
"ECCENTRICITY": 0.0012085,
"INCLINATION": 87.529,
"RA_OF_ASC_NODE": 332.925,
"ARG_OF_PERICENTER": 81.5972,
"MEAN_ANOMALY": 280.5617,
"EPHEMERIS_TYPE": 0,
"CLASSIFICATION_TYPE": "U",
"NORAD_CAT_ID": 48043,
"ELEMENT_SET_NO": 999,
"REV_AT_EPOCH": 889,
"BSTAR": -0.2355,
"MEAN_MOTION_DOT": -0.01413806,
"MEAN_MOTION_DDOT": 0
}
]